STARLINK-30107          
1 56287U 23056B   26068.65769541 -.00000122  00000+0  50864-5 0  9992
2 56287  43.0025 191.3282 0001075 253.2800 106.7934 15.27572483160295
FLOCK 4G-23             
1 62647U 25009AQ  26068.71663397  .00012440  00000+0  46816-3 0  9993
2 62647  97.3979 150.9478 0000905   7.2707 352.8545 15.27262579 63728
